1 43013U 17073A   26092.79330479  .00000111  00000+0  73445-4 0  9999
2 43013  98.7722  32.9449 0002013 104.9579 255.1820 14.19542428433777
